GLOBALSTAR M024         
1 25883U 99043A   26009.01480188 -.00000044  00000+0  74077-3 0  9994
2 25883  52.0017 276.2045 0002350  65.5292 307.3406 11.10165758137726
GLOBALSTAR M027         
1 25884U 99043B   26009.23068878 -.00000060  00000+0  12746-3 0  9990
2 25884  52.0243 359.5344 0021383 324.3661  35.5704 11.04372627164008
GLOBALSTAR M054         
1 25885U 99043C   26008.99613602 -.00000087  00000+0 -39857-3 0  9996
2 25885  52.0146  92.8157 0005396 166.5658   4.8034 11.39224805142506
GLOBALSTAR M053         
1 25886U 99043D   26009.25701495 -.00000067  00000+0  54214-4 0  9997
2 25886  52.0001  50.7195 0003485  79.7820 358.2640 11.27669131142696
GLOBALSTAR M058         
1 25907U 99049A   26009.04858223 -.00000064  00000+0  27522-3 0  9994
2 25907  51.9950 279.4684 0001853 329.7664  30.3064 11.93206633566117
GLOBALSTAR M050         
1 25908U 99049B   26008.99625214 -.00000112  00000+0 -27057-3 0  9998
2 25908  51.9988 271.9078 0009950  79.8298 293.9336 12.07463066173052
GLOBALSTAR M033         
1 25909U 99049C   26009.02425473 -.00000026  00000+0  63450-3 0  9999
2 25909  51.9911 129.4444 0013488 330.4747  29.5338 12.20296565560877
GLOBALSTAR M055         
1 25910U 99049D   26009.02748041 -.00000075  00000+0  16497-3 0  9993
2 25910  52.0017 130.1574 0007141 190.9596 169.1101 12.29438999193601
